satname,norad_id,inclination_deg,eccentricity,mean_motion_rev_per_day,perigee_km,apogee_km,l1,l2
STARLINK-1260,45404,53.1611,0.0001601,15.30194658,474.13379549486945,476.3282439347813,1 45404U 20019AW  26067.45674339 -.00000315  00000+0  15152-5 0  9999,2 45404  53.1611 134.9680 0001601  85.1899 274.9285 15.30194658329783
STARLINK-1263,45405,53.1601,0.0001568,15.30187308,474.1783541588902,476.3275772521356,1 45405U 20019AX  26067.44516146 -.00001630  00000+0 -42932-4 0  9997,2 45405  53.1601 135.0507 0001568  92.7699 267.3481 15.30187308329785
STARLINK-1265,45406,53.1589,0.0001328,15.30194849,474.3203222227112,476.1405766172775,1 45406U 20019AY  26067.59055460  .00004934  00000+0  17862-3 0  9992,2 45406  53.1589 134.4516 0001328  82.7872 277.3280 15.30194849329809
STARLINK-1278,45408,53.0445,0.0001323,15.55629288,399.42719310778466,401.22077388401794,1 45408U 20019BA  26067.56094663  .00116124  00000+0  16451-2 0  9996,2 45408  53.0445 135.8618 0001323  57.5640 302.5498 15.55629288329783
STARLINK-1296,45412,53.1575,0.0001576,15.30197005,474.14392226857217,476.30410165954345,1 45412U 20019BE  26067.45358452  .00005336  00000+0  19219-3 0  9996,2 45412  53.1575 134.9884 0001576  89.6937 270.4245 15.30197005329786
STARLINK-1298,45413,53.0345,0.0006321,15.95909023,281.5704264002861,289.9949536724298,1 45413U 20019BF  26067.66667824  .00296872  46076-4  71608-3 0  9991,2 45413  53.0345  59.1272 0006321  17.4305 305.7904 15.95909023  6026
STARLINK-1309,45414,53.0669,0.0005462,15.545716,399.6941467301267,407.1022958058411,1 45414U 20019BG  26067.59941908  .00102477  00000+0  15120-2 0  9997,2 45414  53.0669 128.8753 0005462  27.8820 332.2482 15.54571600329863
STARLINK-1316,45415,53.1609,0.000125,15.30185741,474.4009702231633,476.1143188843016,1 45415U 20019BH  26067.56421254 -.00000302  00000+0  19290-5 0  9992,2 45415  53.1609 134.5287 0001250  82.2514 277.8629 15.30185741329825
STARLINK-1286,45417,53.0484,0.0002988,15.50806796,412.3396117862567,416.3988134989322,1 45417U 20019BK  26067.57512999  .00047299  00000+0  80929-3 0  9992,2 45417  53.0484 136.0776 0002988  59.6477 300.4826 15.50806796330053
STARLINK-1308,45419,53.054,0.000195,15.50325128,414.45122858514605,417.10085467138106,1 45419U 20019BM  26067.52216371  .00097242  00000+0  16736-2 0  9991,2 45419  53.0540 157.7130 0001950  18.7872 341.3207 15.50325128329493
STARLINK-1329,45531,53.0494,0.0004489,15.5584476,396.6555572674333,402.74069764486376,1 45531U 20025A   26067.48535638  .00060543  00000+0  85993-3 0  9994,2 45531  53.0494  87.1811 0004489 126.4502 233.6923 15.55844760325267
STARLINK-1338,45532,53.0492,0.0005011,15.54425801,400.4238289935911,407.22070857276503,1 45532U 20025B   26067.35224834  .00125779  00000+0  18587-2 0  9991,2 45532  53.0492  91.1899 0005011 357.7479   2.3507 15.54425801325192
STARLINK-1350,45535,53.0735,0.0002121,15.36072783,456.2860004799486,459.18577775951235,1 45535U 20025E   26067.29433374  .00020203  00000+0  57601-3 0  9995,2 45535  53.0735  39.6975 0002121  70.8824 289.2408 15.36072783325949
STARLINK-1362,45538,53.1614,0.0001375,15.30189957,474.3027161383452,476.18739620379165,1 45538U 20025H   26067.48031130 -.00000193  00000+0  55972-5 0  9991,2 45538  53.1614 106.6164 0001375  94.1613 265.9545 15.30189957324992
STARLINK-1368,45540,53.1598,0.0001473,15.30187004,474.24436893176244,476.26337788306864,1 45540U 20025K   26067.42452808  .00001720  00000+0  70199-4 0  9990,2 45540  53.1598 107.2058 0001473  85.2062 274.9107 15.30187004324976
STARLINK-1371,45542,53.0504,0.0001651,15.46780736,425.02736437269414,427.27414018849777,1 45542U 20025M   26067.45577570  .00102284  00000+0  19906-2 0  9993,2 45542  53.0504  95.3170 0001651 342.4569  17.6380 15.46780736325147
STARLINK-1372,45543,53.1595,0.0001101,15.30191183,474.4868385571117,475.99595247980415,1 45543U 20025N   26067.40130265  .00001887  00000+0  75830-4 0  9992,2 45543  53.1595 107.0071 0001101  85.9207 274.1920 15.30191183324074
STARLINK-1373,45544,53.0498,0.0004819,15.50454878,412.1231993605161,418.67080743299084,1 45544U 20025P   26067.34351791  .00116377  00000+0  19867-2 0  9992,2 45544  53.0498  95.4358 0004819   1.9101 358.1925 15.50454878325135
STARLINK-1327,45555,53.0475,0.0006573,15.53749217,401.33186422284325,410.2500158928433,1 45555U 20025AA  26067.66667824  .00102255  00000+0  15542-2 0  9992,2 45555  53.0475  71.5713 0006573  52.2173 187.3982 15.53749217  5709
STARLINK-1356,45564,53.052,0.0005819,15.44600539,428.58892221520546,436.5152021457707,1 45564U 20025AK  26067.30783356  .00121743  00000+0  25436-2 0  9998,2 45564  53.0520  80.4348 0005819  25.0638 335.0649 15.44600539325338
STARLINK-1357,45565,53.0536,0.0003727,15.55171217,399.12813987877416,404.18179681197944,1 45565U 20025AL  26067.36551420  .00168076  00000+0  24023-2 0  9991,2 45565  53.0536  44.4206 0003727  84.5682 275.5753 15.55171217325853
STARLINK-1361,45567,53.0504,0.0007665,15.47518188,418.77508098300405,429.2027400037896,1 45567U 20025AN  26067.59172298  .00137184  00000+0  25859-2 0  9994,2 45567  53.0504  79.1580 0007665  28.2609 331.8812 15.47518188325382
STARLINK-1363,45568,53.0428,0.0008371,15.76326707,335.2340595012238,346.4830018186558,1 45568U 20025AP  26067.23930744  .00156301  00000+0  95648-3 0  9990,2 45568  53.0428  44.9602 0008371  52.6015 307.5765 15.76326707325822
STARLINK-1366,45569,53.0438,0.000864,15.75619743,337.0612602895535,348.6751572903422,1 45569U 20025AQ  26067.63447467  .00134591  00000+0  85218-3 0  9999,2 45569  53.0438  43.7594 0008640  53.5588 306.6226 15.75619743325876
STARLINK-1376,45570,53.1601,0.0001297,15.29349984,476.865030331599,478.64344851910573,1 45570U 20025AR  26067.34690069  .00001111  00000+0  50830-4 0  9991,2 45570  53.1601  84.0320 0001297  95.2458 264.8691 15.29349984325299
STARLINK-1320,45572,53.0498,0.0007396,15.68416655,358.44428859746677,368.4164150242641,1 45572U 20025AT  26067.15009009  .00098661  00000+0  85265-3 0  9995,2 45572  53.0498 353.3252 0007396  52.4170 307.7517 15.68416655326560
STARLINK-1321,45573,53.0502,0.000481,15.4808937,419.04465135936334,425.58668682702955,1 45573U 20025AU  26067.27364731  .00166436  00000+0  30642-2 0  9999,2 45573  53.0502  65.2627 0004810  50.8849 309.2585 15.48089370325249
STARLINK-1331,45578,53.0539,0.0004716,15.48029373,419.2842017860994,425.69855447235113,1 45578U 20025AZ  26067.60390615  .00104541  00000+0  19471-2 0  9997,2 45578  53.0539  70.3590 0004716  77.6860 282.4675 15.48029373325514
STARLINK-1333,45580,53.1609,0.0001222,15.30201881,474.3719741615614,476.04693203469833,1 45580U 20025BB  26067.32175126  .00002641  00000+0  10127-3 0  9995,2 45580  53.1609  84.1613 0001222  82.1263 277.9877 15.30201881325297
STARLINK-1335,45581,53.155,0.0001313,15.29337533,476.89126715823386,478.69163396935255,1 45581U 20025BC  26067.66667824  .00004491  00000+0  16796-3 0  9997,2 45581  53.1550  79.7991 0001313  87.6723 323.5035 15.29337533  5745
STARLINK-1337,45582,53.0539,0.0004859,15.57895636,390.45795397933125,397.0388722237831,1 45582U 20025BD  26067.59426945  .00075871  00000+0  99494-3 0  9993,2 45582  53.0539  67.0754 0004859  74.3678 285.7869 15.57895636325540
STARLINK-1347,45586,53.0462,0.0005646,15.53688559,402.1372023529284,409.797813163088,1 45586U 20025BH  26067.20277785  .00113593  00000+0  17274-2 0  9990,2 45586  53.0462  36.6652 0005646  52.2449 307.9071 15.53688559325939
STARLINK-1364,45589,53.0518,0.0007503,15.49151473,414.10699244362513,424.3070869095627,1 45589U 20025BL  26067.26912987  .00113742  00000+0  20328-2 0  9999,2 45589  53.0518  70.0162 0007503  51.2721 308.8956 15.49151473325474
STARLINK-1365,45590,53.0516,0.0003784,15.45069302,428.5978060906764,433.7510929956916,1 45590U 20025BM  26067.37506738  .00102378  00000+0  21125-2 0  9995,2 45590  53.0516  99.8032 0003784  27.9100 332.2108 15.45069302325089
STARLINK-1443,45660,53.1387,0.0002823,15.2512982,488.4566501621948,492.3346236890029,1 45660U 20035D   26067.27356677  .00034986  00000+0  13853-2 0  9996,2 45660  53.1387  71.4412 0002823  64.7264 295.4026 15.25129820318547
STARLINK-1446,45663,53.0259,3.35e-05,15.42839135,437.5064239512667,437.9630873588958,1 45663U 20035G   26067.51561080  .00028486  00000+0  64673-3 0  9997,2 45663  53.0259   4.9538 0000335 274.0137  86.0829 15.42839135319494
STARLINK-1448,45665,53.0516,0.0007928,15.52016137,405.45794327110707,416.22254558987606,1 45665U 20035J   26067.62071074  .00126540  00000+0  20386-2 0  9992,2 45665  53.0516  57.8805 0007928  71.5611 288.6259 15.52016137318753
STARLINK-1451,45668,53.0526,0.0001901,15.09958847,535.0111938209802,537.6400725141093,1 45668U 20035M   26067.42320546  .00030027  00000+0  18394-2 0  9994,2 45668  53.0526  71.7783 0001901  22.6764 337.4310 15.09958847318552
STARLINK-1452,45669,53.0331,0.0008264,15.44686451,426.67138491256446,437.9276744087874,1 45669U 20035N   26067.12792110  .00108354  00000+0  22608-2 0  9994,2 45669  53.0331  29.1765 0008264  48.2264 311.9447 15.44686451319122
STARLINK-1453,45670,53.0483,0.0006933,15.52216082,405.55083429041315,414.9636217269699,1 45670U 20035P   26067.66667824  .00224553  00000+0  35428-2 0  9992,2 45670  53.0483  18.2550 0006933  47.4850 258.5128 15.52216082  5926
STARLINK-1454,45671,53.0508,0.0008609,15.50780691,408.59770578007374,420.2931742252704,1 45671U 20035Q   26067.66667824  .00154052  00000+0  25825-2 0  9999,2 45671  53.0508  57.7784 0008609  55.1498   5.8941 15.50780691  5700
STARLINK-1456,45673,53.0498,0.0001847,15.49939485,415.6478874995764,418.1579752502257,1 45673U 20035S   26067.26447188  .00040742  00000+0  72057-3 0  9996,2 45673  53.0498  53.1637 0001847 102.9244 257.1971 15.49939485318802
STARLINK-1457,45674,53.0479,0.0009312,15.78243149,329.16656874162436,341.6698940045326,1 45674U 20035T   26067.66667824  .00207308  00000+0  11564-2 0  9990,2 45674  53.0479  27.5532 0009312  66.7218   2.8987 15.78243149  5873
